OBJECT_NAME,OBJECT_ID,EPOCH,MEAN_MOTION,ECCENTRICITY,INCLINATION,RA_OF_ASC_NODE,ARG_OF_PERICENTER,MEAN_ANOMALY,EPHEMERIS_TYPE,CLASSIFICATION_TYPE,NORAD_CAT_ID,ELEMENT_SET_NO,REV_AT_EPOCH,BSTAR,MEAN_MOTION_DOT,MEAN_MOTION_DDOT
GAOFEN-11 01,2018-063A,2026-07-17T14:20:16.669824,15.56116972,.00033896,97.1267,265.4060,188.6595,171.4602,0,U,43585,999,44507,.16597185E-3,.11497E-3,0
ICESAT-2,2018-070A,2026-07-17T14:28:24.612096,15.28201510,.00053995,92.0092,299.1988,53.5800,306.5947,0,U,43613,999,43710,.17114614E-3,.4705E-4,0
HYSIS,2018-096A,2026-07-17T14:17:29.242176,14.78672372,.00017873,97.9826,265.1029,82.9493,277.1921,0,U,43719,999,41191,.61820526E-4,.401E-5,0
KAZSTSAT,2018-099AB,2026-07-17T12:26:14.150976,14.99957207,.0007259,97.4315,229.0803,331.4421,28.6404,0,U,43783,999,41585,.19765207E-4,.19E-5,0
SAUDISAT 5A,2018-102A,2026-07-17T14:41:49.659648,15.28334707,.00102174,97.3047,259.6099,36.0291,324.1635,0,U,43831,999,42032,.10241139E-3,.2756E-4,0
SAUDISAT 5B,2018-102C,2026-07-17T15:01:49.376352,15.28577152,.00110004,97.3157,262.7484,37.3344,322.8659,0,U,43833,999,42044,.95790574E-4,.2593E-4,0
GAOFEN-10R,2019-066A,2026-07-17T15:36:18.365184,14.83059893,.00067473,98.0510,152.4536,46.3582,313.8190,0,U,44622,999,36689,.69344198E-4,.509E-5,0
CARTOSAT-3,2019-081A,2026-07-17T15:39:05.704704,15.19193125,.00128261,97.4285,260.0262,51.0154,309.2221,0,U,44804,999,36809,.85697018E-4,.1738E-4,0
GAOFEN-12 01,2019-082A,2026-07-17T15:06:03.242016,14.80480518,.00008515,97.8110,204.2064,58.2965,301.8330,0,U,44819,999,35859,.24447153E-4,.136E-5,0
CSG-1,2019-092A,2026-07-17T15:12:26.115840,14.82157903,.00014309,97.8897,21.7965,94.1360,266.0016,0,U,44873,999,35598,.25455696E-4,.15E-5,0
NEMO-HD,2020-061F,2026-07-17T15:17:37.695840,15.45169119,.00010107,97.1897,260.2921,104.4905,255.6457,0,U,46277,999,32668,.12973068E-3,.6063E-4,0
SENTINEL-6A,2020-086A,2026-07-17T09:05:40.902432,12.80930187,.00077777,66.0412,72.3448,269.7224,90.2900,0,U,46984,999,26419,.75775933E-4,-.44E-6,0
CAS500-1,2021-022A,2026-07-17T16:06:58.812192,15.20146417,.00054452,97.3860,93.3018,162.5896,197.5527,0,U,47932,999,29539,.13916148E-3,.2943E-4,0
GAOFEN-12 02,2021-026A,2026-07-17T15:26:42.082368,14.80316950,.00059623,97.9936,196.7019,125.7338,234.4429,0,U,48079,999,28626,.23347712E-4,.125E-5,0
PLEIADES NEO 3,2021-034A,2026-07-17T15:25:34.375008,14.81673189,.00013951,97.8940,272.9714,94.0181,266.1191,0,U,48268,999,28216,.15630608E-3,.1178E-4,0
PLEIADES NEO 4,2021-073E,2026-07-17T14:36:56.074176,14.81673899,.0001326,97.8939,272.9341,93.1775,266.9589,0,U,49070,999,26587,.34122407E-4,.216E-5,0
LANDSAT 9,2021-088A,2026-07-17T04:55:37.198560,14.57096328,.00011176,98.2269,268.0173,89.7332,270.3994,0,U,49260,999,25537,.44379798E-4,.154E-5,0
CSG-2,2022-008A,2026-07-17T07:54:56.606112,14.82149834,.00015149,97.8887,21.4904,87.9172,272.2215,0,U,51444,999,24105,.11454938E-4,.39E-6,0
GAOFEN-12 03,2022-069A,2026-07-17T16:17:15.703008,14.80077229,.0002381,97.8239,85.7750,69.5332,290.6136,0,U,52912,999,21912,.10535526E-4,.29E-6,0
SWOT,2022-173A,2026-07-17T13:41:44.525472,14.00172470,.00002301,77.6113,354.2911,69.8312,290.2864,0,U,54754,999,18340,-.25529782E-4,-.4E-6,0
GAOFEN-12 04,2023-123A,2026-07-17T15:08:58.703136,14.79777627,.00033903,97.9099,116.1935,45.3451,314.8037,0,U,57654,999,15713,.63320617E-4,.425E-5,0
PARS 1,2024-039Q,2026-07-17T14:31:23.276928,15.46321290,.00094762,97.4844,180.5001,19.0841,341.0761,0,U,59065,999,13334,.12982839E-3,.6317E-4,0
RESURS-P 4,2024-061A,2026-07-17T15:08:42.893664,15.32288035,.00032285,97.2760,146.0048,85.8572,274.3039,0,U,59371,999,12842,.51767525E-4,.1538E-4,0
LEGION 1,2024-081A,2026-07-17T15:21:27.769536,15.16852598,.00077587,97.5010,276.1740,259.4730,100.5629,0,U,59625,999,12215,.90558983E-4,.1715E-4,0
LEGION 2,2024-081B,2026-07-17T14:30:16.485408,15.16831708,.00103887,97.5011,276.2356,224.2231,135.8173,0,U,59626,999,12215,.95963578E-4,.1821E-4,0
ALOS-4 (DAICHI-4),2024-123A,2026-07-17T14:14:21.991776,14.79473508,.00015493,97.9221,295.3328,97.5571,262.5816,0,U,60182,999,11037,.93547915E-4,.647E-5,0
LEGION 3,2024-146A,2026-07-17T13:51:32.894784,15.15662602,.0007984,45.0016,227.6193,346.9985,13.0687,0,U,60452,999,10663,.71794498E-4,.1125E-4,0
LEGION 4,2024-146B,2026-07-17T15:26:01.396608,15.15690615,.0009067,45.0026,319.1352,128.9409,231.2279,0,U,60453,999,10549,.92198793E-4,.1521E-4,0
SENTINEL-2C,2024-157A,2026-07-17T04:08:29.287680,14.30816028,.00009962,98.5684,272.5288,104.2844,255.8450,0,U,60989,999,9727,.35920395E-4,.51E-6,0
IONOSFERA-M 1,2024-199A,2026-07-17T15:28:35.947200,14.22759476,.00021243,98.7131,71.4899,69.4800,290.6606,0,U,61735,999,13203,.28539999E-4,.2E-6,0
