GAOFEN-11 01            
1 43585U 18063A   26198.59741516  .00011497  00000+0  16597-3 0  9999
2 43585  97.1267 265.4060 0003389 188.6595 171.4602 15.56116972445071
ICESAT-2                
1 43613U 18070A   26198.60306264  .00004705  00000+0  17115-3 0  9999
2 43613  92.0092 299.1988 0005399  53.5800 306.5947 15.28201510437108
HYSIS                   
1 43719U 18096A   26198.59547734  .00000401  00000+0  61821-4 0  9994
2 43719  97.9826 265.1029 0001787  82.9493 277.1921 14.78672372411912
KAZSTSAT                
1 43783U 18099AB  26198.51821934  .00000190  00000+0  19765-4 0  9992
2 43783  97.4315 229.0803 0007259 331.4421  28.6404 14.99957207415851
SAUDISAT 5A             
1 43831U 18102A   26198.61238032  .00002756  00000+0  10241-3 0  9992
2 43831  97.3047 259.6099 0010217  36.0291 324.1635 15.28334707420328
SAUDISAT 5B             
1 43833U 18102C   26198.62626593  .00002593  00000+0  95791-4 0  9991
2 43833  97.3157 262.7484 0011000  37.3344 322.8659 15.28577152420446
GAOFEN-10R              
1 44622U 19066A   26198.65021256  .00000509  00000+0  69344-4 0  9996
2 44622  98.0510 152.4536 0006747  46.3582 313.8190 14.83059893366898
CARTOSAT-3              
1 44804U 19081A   26198.65214936  .00001738  00000+0  85697-4 0  9998
2 44804  97.4285 260.0262 0012826  51.0154 309.2221 15.19193125368092
GAOFEN-12 01            
1 44819U 19082A   26198.62920419  .00000136  00000+0  24447-4 0  9999
2 44819  97.8110 204.2064 0000851  58.2965 301.8330 14.80480518358598
CSG-1                   
1 44873U 19092A   26198.63363560  .00000150  00000+0  25456-4 0  9996
2 44873  97.8897  21.7965 0001430  94.1360 266.0016 14.82157903355988
NEMO-HD                 
1 46277U 20061F   26198.63724185  .00006063  00000+0  12973-3 0  9996
2 46277  97.1897 260.2921 0001010 104.4905 255.6457 15.45169119326687
SENTINEL-6A             
1 46984U 20086A   26198.37894563 -.00000044  00000+0  75776-4 0  9992
2 46984  66.0412  72.3448 0007777 269.7224  90.2900 12.80930187264191
CAS500-1                
1 47932U 21022A   26198.67151403  .00002943  00000+0  13916-3 0  9995
2 47932  97.3860  93.3018 0005445 162.5896 197.5527 15.20146417295394
GAOFEN-12 02            
1 48079U 21026A   26198.64354262  .00000125  00000+0  23348-4 0  9998
2 48079  97.9936 196.7019 0005962 125.7338 234.4429 14.80316950286266
PLEIADES NEO 3          
1 48268U 21034A   26198.64275897  .00001178  00000+0  15631-3 0  9997
2 48268  97.8940 272.9714 0001395  94.0181 266.1191 14.81673189282163
PLEIADES NEO 4          
1 49070U 21073E   26198.60898234  .00000216  00000+0  34122-4 0  9993
2 49070  97.8939 272.9341 0001326  93.1775 266.9589 14.81673899265878
LANDSAT 9               
1 49260U 21088A   26198.20529165  .00000154  00000+0  44380-4 0  9998
2 49260  98.2269 268.0173 0001117  89.7332 270.3994 14.57096328255379
CSG-2                   
1 51444U 22008A   26198.32982183  .00000039  00000+0  11455-4 0  9993
2 51444  97.8887  21.4904 0001514  87.9172 272.2215 14.82149834241059
GAOFEN-12 03            
1 52912U 22069A   26198.67865397  .00000029  00000+0  10536-4 0  9994
2 52912  97.8239  85.7750 0002381  69.5332 290.6136 14.80077229219125
SWOT                    
1 54754U 22173A   26198.57065423 -.00000040  00000+0 -25530-4 0  9992
2 54754  77.6113 354.2911 0000230  69.8312 290.2864 14.00172470183404
GAOFEN-12 04            
1 57654U 23123A   26198.63123499  .00000425  00000+0  63321-4 0  9990
2 57654  97.9099 116.1935 0003390  45.3451 314.8037 14.79777627157135
PARS 1                  
1 59065U 24039Q   26198.60513052  .00006317  00000+0  12983-3 0  9993
2 59065  97.4844 180.5001 0009476  19.0841 341.0761 15.46321290133346
RESURS-P 4              
1 59371U 24061A   26198.63105201  .00001538  00000+0  51768-4 0  9999
2 59371  97.2760 146.0048 0003228  85.8572 274.3039 15.32288035128423
LEGION 1                
1 59625U 24081A   26198.63990474  .00001715  00000+0  90559-4 0  9995
2 59625  97.5010 276.1740 0007758 259.4730 100.5629 15.16852598122159
LEGION 2                
1 59626U 24081B   26198.60435747  .00001821  00000+0  95964-4 0  9993
2 59626  97.5011 276.2356 0010388 224.2231 135.8173 15.16831708122159
ALOS-4 (DAICHI-4)       
1 60182U 24123A   26198.59331009  .00000647  00000+0  93548-4 0  9994
2 60182  97.9221 295.3328 0001549  97.5571 262.5816 14.79473508110374
LEGION 3                
1 60452U 24146A   26198.57746406  .00001125  00000+0  71794-4 0  9999
2 60452  45.0016 227.6193 0007984 346.9985  13.0687 15.15662602106632
LEGION 4                
1 60453U 24146B   26198.64307172  .00001521  00000+0  92199-4 0  9993
2 60453  45.0026 319.1352 0009067 128.9409 231.2279 15.15690615105490
SENTINEL-2C             
1 60989U 24157A   26198.17256120  .00000051  00000+0  35920-4 0  9999
2 60989  98.5684 272.5288 0000996 104.2844 255.8450 14.30816028 97272
IONOSFERA-M 1           
1 61735U 24199A   26198.64486050  .00000020  00000+0  28540-4 0  9990
2 61735  98.7131  71.4899 0002124  69.4800 290.6606 14.22759476132032
